start=new Date('2022-11-05T00:00:00.000Z').valueOf();
sats=[{"ARG_OF_PERICENTER":"42.2462","MEAN_MOTION":"15.06422643","NORAD_CAT_ID":"46574","DECAY_DATE":null,"MEAN_ANOMALY":"317.8684","OBJECT_TYPE":"PAYLOAD","TLE_LINE2":"2 46574  53.0529 243.5228 0002035  42.2462 317.8684 15.06422643115667","ELEMENT_SET_NO":"999","CLASSIFICATION_TYPE":"U","TIME_SYSTEM":"UTC","MEAN_MOTION_DOT":"0.00004545","BSTAR":"0.00032360000000","SITE":"AFETR","APOAPSIS":"548.553","ECCENTRICITY":"0.00020350","REF_FRAME":"TEME","PERIOD":"95.591","LAUNCH_DATE":"2020-10-06","OBJECT_NAME":"STARLINK-1660","PERIAPSIS":"545.735","EPHEMERIS_TYPE":"0","TLE_LINE1":"1 46574U 20070AU  22308.55370147  .00004545  00000-0  32360-3 0  9997","OBJECT_ID":"2020-070AU","INCLINATION":"53.0529","FILE":"3644787","RCS_SIZE":"LARGE","GP_ID":"216901437","MEAN_ELEMENT_THEORY":"SGP4","COUNTRY_CODE":"US","EPOCH":"2022-11-04T13:17:19.807008","CENTER_NAME":"EARTH","RA_OF_ASC_NODE":"243.5228","SEMIMAJOR_AXIS":"6925.279","MEAN_MOTION_DDOT":"0.0000000000000","REV_AT_EPOCH":"11566"},{"MEAN_ANOMALY":"313.3653","DECAY_DATE":null,"NORAD_CAT_ID":"46575","MEAN_MOTION":"15.06421163","ARG_OF_PERICENTER":"46.7489","MEAN_MOTION_DOT":"0.00007873","TLE_LINE2":"2 46575  53.0528 218.8695 0001836  46.7489 313.3653 15.06421163115995","ELEMENT_SET_NO":"999","TIME_SYSTEM":"UTC","CLASSIFICATION_TYPE":"U","OBJECT_TYPE":"PAYLOAD","OBJECT_NAME":"STARLINK-1675","LAUNCH_DATE":"2020-10-06","ECCENTRICITY":"0.00018360","REF_FRAME":"TEME","PERIOD":"95.591","BSTAR":"0.00054657000000","SITE":"AFETR","APOAPSIS":"548.420","EPHEMERIS_TYPE":"0","PERIAPSIS":"545.877","OBJECT_ID":"2020-070AV","TLE_LINE1":"1 46575U 20070AV  22308.47675793  .00007873  00000-0  54657-3 0  9994","GP_ID":"216901687","FILE":"3644787","RCS_SIZE":"LARGE","INCLINATION":"53.0528","RA_OF_ASC_NODE":"218.8695","CENTER_NAME":"EARTH","MEAN_ELEMENT_THEORY":"SGP4","COUNTRY_CODE":"US","EPOCH":"2022-11-04T11:26:31.885152","MEAN_MOTION_DDOT":"0.0000000000000","REV_AT_EPOCH":"11599","SEMIMAJOR_AXIS":"6925.284"},{"SEMIMAJOR_AXIS":"6925.352","REV_AT_EPOCH":"11570","MEAN_MOTION_DDOT":"0.0000000000000","EPOCH":"2022-11-04T19:28:52.896576","COUNTRY_CODE":"US","MEAN_ELEMENT_THEORY":"SGP4","RA_OF_ASC_NODE":"242.3551","CENTER_NAME":"EARTH","INCLINATION":"53.0550","FILE":"3645105","RCS_SIZE":"LARGE","GP_ID":"216934199","TLE_LINE1":"1 46576U 20070AW  22308.81172334  .00002211  00000-0  16731-3 0  9998","OBJECT_ID":"2020-070AW","PERIAPSIS":"545.739","EPHEMERIS_TYPE":"0","BSTAR":"0.00016731000000","SITE":"AFETR","APOAPSIS":"548.695","PERIOD":"95.592","ECCENTRICITY":"0.00021340","REF_FRAME":"TEME","LAUNCH_DATE":"2020-10-06","OBJECT_NAME":"STARLINK-1677","OBJECT_TYPE":"PAYLOAD","TIME_SYSTEM":"UTC","CLASSIFICATION_TYPE":"U","ELEMENT_SET_NO":"999","TLE_LINE2":"2 46576  53.0550 242.3551 0002134  44.0735 316.0424 15.06398836115706","MEAN_MOTION_DOT":"0.00002211","ARG_OF_PERICENTER":"44.0735","MEAN_MOTION":"15.06398836","NORAD_CAT_ID":"46576","DECAY_DATE":null,"MEAN_ANOMALY":"316.0424"},{"OBJECT_ID":"2020-070AX","TLE_LINE1":"1 46577U 20070AX  22308.84121135 -.00000902  00000-0 -41654-4 0  9995","GP_ID":"216933938","RCS_SIZE":"LARGE","FILE":"3645105","INCLINATION":"53.0528","RA_OF_ASC_NODE":"242.2111","CENTER_NAME":"EARTH","EPOCH":"2022-11-04T20:11:20.660640","MEAN_ELEMENT_THEORY":"SGP4","COUNTRY_CODE":"US","REV_AT_EPOCH":"11570","MEAN_MOTION_DDOT":"0.0000000000000","SEMIMAJOR_AXIS":"6925.339","MEAN_ANOMALY":"299.3560","DECAY_DATE":null,"MEAN_MOTION":"15.06403128","NORAD_CAT_ID":"46577","ARG_OF_PERICENTER":"60.7610","MEAN_MOTION_DOT":"-0.00000902","CLASSIFICATION_TYPE":"U","TIME_SYSTEM":"UTC","ELEMENT_SET_NO":"999","TLE_LINE2":"2 46577  53.0528 242.2111 0001812  60.7610 299.3560 15.06403128115707","OBJECT_TYPE":"PAYLOAD","OBJECT_NAME":"STARLINK-1682","LAUNCH_DATE":"2020-10-06","PERIOD":"95.592","ECCENTRICITY":"0.00018120","REF_FRAME":"TEME","BSTAR":"-0.00004165400000","SITE":"AFETR","APOAPSIS":"548.459","EPHEMERIS_TYPE":"0","PERIAPSIS":"545.949"},{"OBJECT_ID":"2020-070AY","TLE_LINE1":"1 46578U 20070AY  22308.82233064  .00001337  00000-0  10860-3 0  9994","GP_ID":"216932699","RCS_SIZE":"LARGE","FILE":"3645105","INCLINATION":"53.0539","RA_OF_ASC_NODE":"227.3634","CENTER_NAME":"EARTH","MEAN_ELEMENT_THEORY":"SGP4","COUNTRY_CODE":"US","EPOCH":"2022-11-04T19:44:09.367296","MEAN_MOTION_DDOT":"0.0000000000000","REV_AT_EPOCH":"11591","SEMIMAJOR_AXIS":"6925.332","MEAN_ANOMALY":"304.5981","DECAY_DATE":null,"MEAN_MOTION":"15.06405315","NORAD_CAT_ID":"46578","ARG_OF_PERICENTER":"55.5164","MEAN_MOTION_DOT":"0.00001337","ELEMENT_SET_NO":"999","TLE_LINE2":"2 46578  53.0539 227.3634 0001655  55.5164 304.5981 15.06405315115914","TIME_SYSTEM":"UTC","CLASSIFICATION_TYPE":"U","OBJECT_TYPE":"PAYLOAD","OBJECT_NAME":"STARLINK-1683","LAUNCH_DATE":"2020-10-06","ECCENTRICITY":"0.00016550","REF_FRAME":"TEME","PERIOD":"95.592","SITE":"AFETR","BSTAR":"0.00010860000000","APOAPSIS":"548.343","EPHEMERIS_TYPE":"0","PERIAPSIS":"546.051"},{"DECAY_DATE":null,"MEAN_ANOMALY":"305.3662","ARG_OF_PERICENTER":"54.7572","MEAN_MOTION":"15.06415184","NORAD_CAT_ID":"46579","TLE_LINE2":"2 46579  53.0550 242.2945 0002615  54.7572 305.3662 15.06415184115707","ELEMENT_SET_NO":"999","CLASSIFICATION_TYPE":"U","TIME_SYSTEM":"UTC","MEAN_MOTION_DOT":"0.00002793","OBJECT_TYPE":"PAYLOAD","LAUNCH_DATE":"2020-10-06","OBJECT_NAME":"STARLINK-1705","SITE":"AFETR","BSTAR":"0.00020624000000","APOAPSIS":"548.978","ECCENTRICITY":"0.00026150","REF_FRAME":"TEME","PERIOD":"95.591","EPHEMERIS_TYPE":"0","PERIAPSIS":"545.356","OBJECT_ID":"2020-070AZ","TLE_LINE1":"1 46579U 20070AZ  22308.82646502  .00002793  00000-0  20624-3 0  9996","GP_ID":"216933448","INCLINATION":"53.0550","RCS_SIZE":"LARGE","FILE":"3645105","MEAN_ELEMENT_THEORY":"SGP4","COUNTRY_CODE":"US","EPOCH":"2022-11-04T19:50:06.577728","CENTER_NAME":"EARTH","RA_OF_ASC_NODE":"242.2945","MEAN_MOTION_DDOT":"0.0000000000000","REV_AT_EPOCH":"11570","SEMIMAJOR_AXIS":"6925.302"},{"ARG_OF_PERICENTER":"47.7738","NORAD_CAT_ID":"46580","MEAN_MOTION":"15.06410145","DECAY_DATE":null,"MEAN_ANOMALY":"312.3407","OBJECT_TYPE":"PAYLOAD","ELEMENT_SET_NO":"999","TLE_LINE2":"2 46580  53.0555 243.5826 0001840  47.7738 312.3407 15.06410145115663","TIME_SYSTEM":"UTC","CLASSIFICATION_TYPE":"U","MEAN_MOTION_DOT":"0.00001357","APOAPSIS":"548.457","SITE":"AFETR","BSTAR":"0.00010996000000","REF_FRAME":"TEME","ECCENTRICITY":"0.00018400","PERIOD":"95.591","LAUNCH_DATE":"2020-10-06","OBJECT_NAME":"STARLINK-1708","PERIAPSIS":"545.908","EPHEMERIS_TYPE":"0","TLE_LINE1":"1 46580U 20070BA  22308.53895980  .00001357  00000-0  10996-3 0  9998","OBJECT_ID":"2020-070BA","INCLINATION":"53.0555","FILE":"3644787","RCS_SIZE":"LARGE","GP_ID":"216900943","MEAN_ELEMENT_THEORY":"SGP4","COUNTRY_CODE":"US","EPOCH":"2022-11-04T12:56:06.126720","CENTER_NAME":"EARTH","RA_OF_ASC_NODE":"243.5826","SEMIMAJOR_AXIS":"6925.317","MEAN_MOTION_DDOT":"0.0000000000000","REV_AT_EPOCH":"11566"},{"REV_AT_EPOCH":"11576","MEAN_MOTION_DDOT":"0.0000000000000","SEMIMAJOR_AXIS":"6925.304","EPOCH":"2022-11-04T18:28:30.121248","COUNTRY_CODE":"US","MEAN_ELEMENT_THEORY":"SGP4","RA_OF_ASC_NODE":"237.5425","CENTER_NAME":"EARTH","GP_ID":"216934439","INCLINATION":"53.0540","FILE":"3645105","RCS_SIZE":"LARGE","OBJECT_ID":"2020-070BB","TLE_LINE1":"1 46581U 20070BB  22308.76979307  .00001601  00000-0  12634-3 0  9993","EPHEMERIS_TYPE":"0","PERIAPSIS":"545.868","LAUNCH_DATE":"2020-10-06","OBJECT_NAME":"STARLINK-1712","BSTAR":"0.00012634000000","SITE":"AFETR","APOAPSIS":"548.469","PERIOD":"95.591","ECCENTRICITY":"0.00018780","REF_FRAME":"TEME","TIME_SYSTEM":"UTC","CLASSIFICATION_TYPE":"U","TLE_LINE2":"2 46581  53.0540 237.5425 0001878  56.5561 303.5607 15.06414614115769","ELEMENT_SET_NO":"999","MEAN_MOTION_DOT":"0.00001601","OBJECT_TYPE":"PAYLOAD","DECAY_DATE":null,"MEAN_ANOMALY":"303.5607","ARG_OF_PERICENTER":"56.5561","MEAN_MOTION":"15.06414614","NORAD_CAT_ID":"46581"},{"SITE":"AFETR","BSTAR":"0.00017285000000","APOAPSIS":"548.441","ECCENTRICITY":"0.00018020","REF_FRAME":"TEME","PERIOD":"95.592","LAUNCH_DATE":"2020-10-06","OBJECT_NAME":"STARLINK-1728","PERIAPSIS":"545.945","EPHEMERIS_TYPE":"0","ARG_OF_PERICENTER":"58.4672","NORAD_CAT_ID":"46582","MEAN_MOTION":"15.06406714","DECAY_DATE":null,"MEAN_ANOMALY":"301.6492","OBJECT_TYPE":"PAYLOAD","ELEMENT_SET_NO":"999","TLE_LINE2":"2 46582  53.0544 240.0030 0001802  58.4672 301.6492 15.06406714115680","TIME_SYSTEM":"UTC","CLASSIFICATION_TYPE":"U","MEAN_MOTION_DOT":"0.00002294","MEAN_ELEMENT_THEORY":"SGP4","COUNTRY_CODE":"US","EPOCH":"2022-11-04T05:22:57.519840","CENTER_NAME":"EARTH","RA_OF_ASC_NODE":"240.0030","SEMIMAJOR_AXIS":"6925.328","MEAN_MOTION_DDOT":"0.0000000000000","REV_AT_EPOCH":"11568","TLE_LINE1":"1 46582U 20070BC  22308.22427685  .00002294  00000-0  17285-3 0  9998","OBJECT_ID":"2020-070BC","INCLINATION":"53.0544","RCS_SIZE":"LARGE","FILE":"3644787","GP_ID":"216901438"},{"GP_ID":"216901688","FILE":"3644787","RCS_SIZE":"LARGE","INCLINATION":"53.0551","OBJECT_ID":"2020-070BD","TLE_LINE1":"1 46583U 20070BD  22308.27403747  .00005386  00000-0  38004-3 0  9994","REV_AT_EPOCH":"11540","MEAN_MOTION_DDOT":"0.0000000000000","SEMIMAJOR_AXIS":"6925.297","CENTER_NAME":"EARTH","RA_OF_ASC_NODE":"259.7751","EPOCH":"2022-11-04T06:34:36.837408","COUNTRY_CODE":"US","MEAN_ELEMENT_THEORY":"SGP4","MEAN_MOTION_DOT":"0.00005386","TIME_SYSTEM":"UTC","CLASSIFICATION_TYPE":"U","TLE_LINE2":"2 46583  53.0551 259.7751 0001905  52.7127 307.4035 15.06416877115400","ELEMENT_SET_NO":"999","OBJECT_TYPE":"PAYLOAD","MEAN_ANOMALY":"307.4035","DECAY_DATE":null,"MEAN_MOTION":"15.06416877","NORAD_CAT_ID":"46583","ARG_OF_PERICENTER":"52.7127","EPHEMERIS_TYPE":"0","PERIAPSIS":"545.843","OBJECT_NAME":"STARLINK-1729","LAUNCH_DATE":"2020-10-06","PERIOD":"95.591","ECCENTRICITY":"0.00019050","REF_FRAME":"TEME","APOAPSIS":"548.481","SITE":"AFETR","BSTAR":"0.00038004000000"}];
